[{"OBJECT_NAME":"STARLINK-31332","OBJECT_ID":"2024-076C","EPOCH":"2026-03-09T05:18:37.753920","MEAN_MOTION":15.27582085,"ECCENTRICITY":0.0002172,"INCLINATION":43.0076,"RA_OF_ASC_NODE":11.4224,"ARG_OF_PERICENTER":266.0667,"MEAN_ANOMALY":93.9936,"EPHEMERIS_TYPE":0,"CLASSIFICATION_TYPE":"U","NORAD_CAT_ID":59566,"ELEMENT_SET_NO":999,"REV_AT_EPOCH":10643,"BSTAR":-3.0486869e-5,"MEAN_MOTION_DOT":-1.101e-5,"MEAN_MOTION_DDOT":0},{"OBJECT_NAME":"CZ-2C R\/B","OBJECT_ID":"2024-218A","EPOCH":"2026-03-09T22:16:31.791072","MEAN_MOTION":15.22960743,"ECCENTRICITY":0.00453409,"INCLINATION":97.5416,"RA_OF_ASC_NODE":83.973,"ARG_OF_PERICENTER":359.5317,"MEAN_ANOMALY":0.5869,"EPHEMERIS_TYPE":0,"CLASSIFICATION_TYPE":"U","NORAD_CAT_ID":62078,"ELEMENT_SET_NO":999,"REV_AT_EPOCH":7134,"BSTAR":0.00039378379,"MEAN_MOTION_DOT":9.445e-5,"MEAN_MOTION_DDOT":0}]
